IRIDIUM 136             
1 42962U 17061H   23253.44726724  .00000110  00000+0  32194-4 0  9993
2 42962  86.3912  87.6675 0002304  92.6427 267.5033 14.34217036309966
